[{"id":"31797","name":"SAR-LUPE 2","tle1":"1 31797U 07030A   26176.28390682  .00043155  00000+0  73817-3 0  9993","tle2":"2 31797  98.1044 281.7270 0002981 153.9466 206.1935 15.51147616 58192"},{"id":"39088","name":"SAPPHIRE","tle1":"1 39088U 13009C   26176.24878874  .00000102  00000+0  50791-4 0  9999","tle2":"2 39088  98.4264 355.5132 0010376 220.2801 139.7617 14.35242581697730"},{"id":"65565","name":"PRAETORIAN SDA_602","tle1":"1 65565U 25203A   26176.26384277  .00000104  00000+0  82280-4 0  9998","tle2":"2 65565  81.3030   3.2867 0006228 163.9170 196.2185 13.84278721 39811"},{"id":"65566","name":"PRAETORIAN SDA_603","tle1":"1 65566U 25203B   26176.22042270  .00000197  00000+0  16700-3 0  9994","tle2":"2 65566  81.3034   3.2488 0009785 165.4985 194.6454 13.83905830 39815"},{"id":"65567","name":"PRAETORIAN SDA_604","tle1":"1 65567U 25203C   26176.24511468  .00000076  00000+0  59029-4 0  9995","tle2":"2 65567  81.3052   3.6503 0005716 169.4261 190.7016 13.83048230 39799"},{"id":"65568","name":"PRAETORIAN SDA_605","tle1":"1 65568U 25203D   26175.99122922  .00000064  00000+0  47480-4 0  9995","tle2":"2 65568  81.3019   3.5404 0008511 162.1302 198.0155 13.83434828 39779"},{"id":"65569","name":"PRAETORIAN SDA_606","tle1":"1 65569U 25203E   26176.26447497  .00000065  00000+0  48167-4 0  9998","tle2":"2 65569  81.3052   3.5154 0006406 163.9669 196.1692 13.83198583 39809"},{"id":"65570","name":"PRAETORIAN SDA_607","tle1":"1 65570U 25203F   26176.26614657  .00000176  00000+0  14670-3 0  9998","tle2":"2 65570  81.3042   3.1618 0009088 165.8079 194.3335 13.84285603 39823"},{"id":"65571","name":"PRAETORIAN SDA_608","tle1":"1 65571U 25203G   26176.02936112  .00000037  00000+0  22926-4 0  9996","tle2":"2 65571  81.3006   3.5462 0006205 169.3963 190.7326 13.83817212 39774"},{"id":"65572","name":"PRAETORIAN SDA_609","tle1":"1 65572U 25203H   26176.24889596  .00000094  00000+0  73252-4 0  9995","tle2":"2 65572  81.3051   3.3248 0007145 163.9312 196.2073 13.84209746 39810"},{"id":"65573","name":"PRAETORIAN SDA_610","tle1":"1 65573U 25203J   26176.22629078  .00000077  00000+0  58791-4 0  9993","tle2":"2 65573  81.3007   3.3225 0006987 168.4624 191.6694 13.83768221 39800"},{"id":"65574","name":"PRAETORIAN SDA_611","tle1":"1 65574U 25203K   26176.22975554  .00000117  00000+0  95361-4 0  9996","tle2":"2 65574  81.3014   3.4909 0005758 171.6814 188.4438 13.83309542 39796"},{"id":"65575","name":"PRAETORIAN SDA_612","tle1":"1 65575U 25203L   26175.77589646  .00000149  00000+0  12079-3 0  9998","tle2":"2 65575  81.3028   3.4787 0009490 166.3069 193.8347 13.85039857 39763"},{"id":"65576","name":"PRAETORIAN SDA_613","tle1":"1 65576U 25203M   26176.23966271  .00000067  00000+0  50658-4 0  9999","tle2":"2 65576  81.2999   3.4848 0006005 162.2918 197.8448 13.82765745 39793"},{"id":"65577","name":"PRAETORIAN SDA_614","tle1":"1 65577U 25203N   26176.27227690  .00000074  00000+0  55137-4 0  9994","tle2":"2 65577  81.3013   3.0976 0007473 161.9190 198.2234 13.84777941 39834"},{"id":"65578","name":"PRAETORIAN SDA_615","tle1":"1 65578U 25203P   26176.25115575  .00000134  00000+0  10932-3 0  9991","tle2":"2 65578  81.3026   3.0856 0009378 164.4184 195.7264 13.84437750 39828"},{"id":"65579","name":"PRAETORIAN SDA_616","tle1":"1 65579U 25203Q   26176.22921018  .00000163  00000+0  13790-3 0  9993","tle2":"2 65579  81.3060   3.6420 0005701 169.6420 190.4854 13.83268314 39796"},{"id":"65580","name":"PRAETORIAN SDA_617","tle1":"1 65580U 25203R   26176.03448511  .00000044  00000+0  29425-4 0  9997","tle2":"2 65580  81.3035   3.6522 0007713 163.0402 197.1014 13.83150360 39777"},{"id":"65581","name":"PRAETORIAN SDA_618","tle1":"1 65581U 25203S   26176.21584902  .00000219  00000+0  18408-3 0  9995","tle2":"2 65581  81.3020   3.0455 0010057 165.8687 194.2753 13.84670781 39820"},{"id":"65582","name":"PRAETORIAN SDA_619","tle1":"1 65582U 25203T   26176.25680432  .00000177  00000+0  14951-3 0  9997","tle2":"2 65582  81.3042   3.3175 0008528 163.7596 196.3836 13.83806621 40441"},{"id":"65583","name":"PRAETORIAN SDA_620","tle1":"1 65583U 25203U   26176.21357259  .00000176  00000+0  14822-3 0  9998","tle2":"2 65583  81.3029   3.3796 0007962 159.5559 200.5917 13.83618830 39808"},{"id":"65584","name":"PRAETORIAN SDA_621","tle1":"1 65584U 25203V   26176.25860192  .00000076  00000+0  57565-4 0  9999","tle2":"2 65584  81.3021   3.2526 0007796 157.2649 202.8854 13.83801965 39810"},{"id":"65585","name":"PRAETORIAN SDA_601","tle1":"1 65585U 25203W   26176.23292717  .00000117  00000+0  95696-4 0  9993","tle2":"2 65585  81.3048   3.5824 0005678 172.6408 187.4832 13.83167324 39790"},{"id":"69646","name":"VICTUS HAZE PUMA","tle1":"1 69646U 26142A   26176.30885789  .00004173  00000+0  19192-3 0  9995","tle2":"2 69646  97.4481  73.8406 0021159 298.7364  61.1746 15.20706491   900"}]