OBJECT_NAME,OBJECT_ID,EPOCH,MEAN_MOTION,ECCENTRICITY,INCLINATION,RA_OF_ASC_NODE,ARG_OF_PERICENTER,MEAN_ANOMALY,EPHEMERIS_TYPE,CLASSIFICATION_TYPE,NORAD_CAT_ID,ELEMENT_SET_NO,REV_AT_EPOCH,BSTAR,MEAN_MOTION_DOT,MEAN_MOTION_DDOT
SAR-LUPE 2,2007-030A,2026-06-25T06:48:49.549248,15.51147616,.00029817,98.1044,281.7270,153.9466,206.1935,0,U,31797,999,5819,.7381744E-3,.43155E-3,0
SAPPHIRE,2013-009C,2026-06-25T05:58:15.347136,14.35242581,.00103764,98.4264,355.5132,220.2801,139.7617,0,U,39088,999,69773,.50790982E-4,.102E-5,0
PRAETORIAN SDA_602,2025-203A,2026-06-25T06:19:56.015328,13.84278721,.00062287,81.3030,3.2867,163.9170,196.2185,0,U,65565,999,3981,.82279946E-4,.104E-5,0
PRAETORIAN SDA_603,2025-203B,2026-06-25T05:17:24.521280,13.83905830,.00097854,81.3034,3.2488,165.4985,194.6454,0,U,65566,999,3981,.16700218E-3,.197E-5,0
PRAETORIAN SDA_604,2025-203C,2026-06-25T05:52:57.908352,13.83048230,.00057164,81.3052,3.6503,169.4261,190.7016,0,U,65567,999,3979,.59029422E-4,.76E-6,0
PRAETORIAN SDA_605,2025-203D,2026-06-24T23:47:22.204608,13.83434828,.00085116,81.3019,3.5404,162.1302,198.0155,0,U,65568,999,3977,.4747961E-4,.64E-6,0
PRAETORIAN SDA_606,2025-203E,2026-06-25T06:20:50.637408,13.83198583,.00064062,81.3052,3.5154,163.9669,196.1692,0,U,65569,999,3980,.48167338E-4,.65E-6,0
PRAETORIAN SDA_607,2025-203F,2026-06-25T06:23:15.063648,13.84285603,.00090885,81.3042,3.1618,165.8079,194.3335,0,U,65570,999,3982,.14669524E-3,.176E-5,0
PRAETORIAN SDA_608,2025-203G,2026-06-25T00:42:16.800768,13.83817212,.00062057,81.3006,3.5462,169.3963,190.7326,0,U,65571,999,3977,.2292645E-4,.37E-6,0
PRAETORIAN SDA_609,2025-203H,2026-06-25T05:58:24.610944,13.84209746,.0007145,81.3051,3.3248,163.9312,196.2073,0,U,65572,999,3981,.73252495E-4,.94E-6,0
PRAETORIAN SDA_610,2025-203J,2026-06-25T05:25:51.523392,13.83768221,.00069872,81.3007,3.3225,168.4624,191.6694,0,U,65573,999,3980,.58790839E-4,.77E-6,0
PRAETORIAN SDA_611,2025-203K,2026-06-25T05:30:50.878656,13.83309542,.00057586,81.3014,3.4909,171.6814,188.4438,0,U,65574,999,3979,.95361285E-4,.117E-5,0
PRAETORIAN SDA_612,2025-203L,2026-06-24T18:37:17.454144,13.85039857,.000949,81.3028,3.4787,166.3069,193.8347,0,U,65575,999,3976,.12079456E-3,.149E-5,0
PRAETORIAN SDA_613,2025-203M,2026-06-25T05:45:06.858144,13.82765745,.00060052,81.2999,3.4848,162.2918,197.8448,0,U,65576,999,3979,.50657972E-4,.67E-6,0
PRAETORIAN SDA_614,2025-203N,2026-06-25T06:32:04.724160,13.84777941,.00074735,81.3013,3.0976,161.9190,198.2234,0,U,65577,999,3983,.55137109E-4,.74E-6,0
PRAETORIAN SDA_615,2025-203P,2026-06-25T06:01:39.856800,13.84437750,.00093787,81.3026,3.0856,164.4184,195.7264,0,U,65578,999,3982,.1093197E-3,.134E-5,0
PRAETORIAN SDA_616,2025-203Q,2026-06-25T05:30:03.759552,13.83268314,.00057014,81.3060,3.6420,169.6420,190.4854,0,U,65579,999,3979,.13789848E-3,.163E-5,0
PRAETORIAN SDA_617,2025-203R,2026-06-25T00:49:39.513504,13.83150360,.00077139,81.3035,3.6522,163.0402,197.1014,0,U,65580,999,3977,.29424953E-4,.44E-6,0
PRAETORIAN SDA_618,2025-203S,2026-06-25T05:10:49.355328,13.84670781,.00100571,81.3020,3.0455,165.8687,194.2753,0,U,65581,999,3982,.18407903E-3,.219E-5,0
PRAETORIAN SDA_619,2025-203T,2026-06-25T06:09:47.893248,13.83806621,.0008528,81.3042,3.3175,163.7596,196.3836,0,U,65582,999,4044,.1495078E-3,.177E-5,0
PRAETORIAN SDA_620,2025-203U,2026-06-25T05:07:32.671776,13.83618830,.00079624,81.3029,3.3796,159.5559,200.5917,0,U,65583,999,3980,.14821514E-3,.176E-5,0
PRAETORIAN SDA_621,2025-203V,2026-06-25T06:12:23.205888,13.83801965,.0007796,81.3021,3.2526,157.2649,202.8854,0,U,65584,999,3981,.57564914E-4,.76E-6,0
PRAETORIAN SDA_601,2025-203W,2026-06-25T05:35:24.907488,13.83167324,.00056787,81.3048,3.5824,172.6408,187.4832,0,U,65585,999,3979,.95695816E-4,.117E-5,0
VICTUS HAZE PUMA,2026-142A,2026-06-25T07:24:45.321696,15.20706491,.0021159,97.4481,73.8406,298.7364,61.1746,0,U,69646,999,90,.191918E-3,.4173E-4,0
